H1 CPF  1  DLR 2022 09 17 10  7602 technosat            
H2  1704205 6203    42829 2022 09 17 00 00 00 2022 09 24 00 00 00    60 1 1  0 0 0
H9
10 0 59845  14400.000000  0      -3820318.045      -5442823.831       2104765.077
10 0 59845  14460.000000  0      -3964957.663      -5490658.432       1672524.696
10 0 59845  14520.000000  0      -4093216.572      -5514182.403       1233191.230
10 0 59845  14580.000000  0      -4204347.597      -5513450.419        788629.323
10 0 59845  14640.000000  0      -4297677.478      -5488626.256        340724.787
10 0 59845  14700.000000  0      -4372610.657      -5439981.360       -108623.586
10 0 59845  14760.000000  0      -4428632.661      -5367892.888       -557512.292
10 0 59845  14820.000000  0      -4465313.099      -5272841.235      -1004041.386
10 0 59845  14880.000000  0      -4482308.232      -5155407.043      -1446322.708
10 0 59845  14940.000000  0      -4479363.111      -5016267.744      -1882488.012
10 0 59845  15000.000000  0      -4456313.299      -4856193.660      -2310696.954
10 0 59845  15060.000000  0      -4413086.124      -4676043.678      -2729144.903
10 0 59845  15120.000000  0      -4349701.505      -4476760.572      -3136070.530
10 0 59845  15180.000000  0      -4266272.329      -4259365.977      -3529763.161
10 0 59845  15240.000000  0      -4163004.384      -4024955.042      -3908569.844
10 0 59845  15300.000000  0      -4040195.880      -3774690.837      -4270902.124
10 0 59845  15360.000000  0      -3898236.550      -3509798.486      -4615242.515
10 0 59845  15420.000000  0      -3737606.310      -3231559.073      -4940150.622
10 0 59845  15480.000000  0      -3558873.507      -2941303.370      -5244268.866
10 0 59845  15540.000000  0      -3362692.790      -2640405.444      -5526327.821
10 0 59845  15600.000000  0      -3149802.610      -2330276.156      -5785151.173
10 0 59845  15660.000000  0      -2921022.377      -2012356.585      -6019660.298
10 0 59845  15720.000000  0      -2677249.222      -1688111.360      -6228878.447
10 0 59845  15780.000000  0      -2419454.403      -1359021.986      -6411934.462
10 0 59845  15840.000000  0      -2148679.402      -1026580.181      -6568066.054
10 0 59845  15900.000000  0      -1866031.731       -692281.253      -6696622.633
10 0 59845  15960.000000  0      -1572680.466       -357617.553      -6797067.682
10 0 59845  16020.000000  0      -1269851.575        -24072.043      -6868980.739
10 0 59845  16080.000000  0       -958822.977        306888.020      -6912059.044
10 0 59845  16140.000000  0       -640919.295        633817.350      -6926118.774
10 0 59845  16200.000000  0       -317506.401        955298.781      -6911095.768
10 0 59845  16260.000000  0         10014.207       1269949.185      -6867045.792
10 0 59845  16320.000000  0        340211.177       1576425.179      -6794144.545
10 0 59845  16380.000000  0        671629.388       1873428.814      -6692687.289
10 0 59845  16440.000000  0       1002796.284       2159713.012      -6563087.823
10 0 59845  16500.000000  0       1332228.200       2434086.704      -6405877.015
10 0 59845  16560.000000  0       1658436.812       2695419.799      -6221701.029
10 0 59845  16620.000000  0       1979935.778       2942647.922      -6011319.017
10 0 59845  16680.000000  0       2295247.416       3174776.754      -5775600.317
10 0 59845  16740.000000  0       2602909.390       3390886.097      -5515521.298
10 0 59845  16800.000000  0       2901481.447       3590133.698      -5232161.784
10 0 59845  16860.000000  0       3189552.195       3771758.764      -4926701.010
10 0 59845  16920.000000  0       3465745.865       3935085.087      -4600413.097
10 0 59845  16980.000000  0       3728728.993       4079523.814      -4254662.101
10 0 59845  17040.000000  0       3977216.995       4204575.816      -3890896.635
10 0 59845  17100.000000  0       4209980.664       4309833.669      -3510644.056
10 0 59845  17160.000000  0       4425852.448       4394983.181      -3115504.210
10 0 59845  17220.000000  0       4623732.462       4459804.467      -2707142.807
10 0 59845  17280.000000  0       4802594.269       4504172.582      -2287284.530
10 0 59845  17340.000000  0       4961490.463       4528057.744      -1857705.793
10 0 59845  17400.000000  0       5099557.899       4531525.041      -1420227.093
10 0 59845  17460.000000  0       5216022.463       4514733.646       -976705.148
10 0 59845  17520.000000  0       5310203.478       4477935.608       -529024.858
10 0 59845  17580.000000  0       5381517.665       4421474.156        -79091.071
10 0 59845  17640.000000  0       5429482.672       4345781.596        371179.747
10 0 59845  17700.000000  0       5453720.165       4251376.740        819867.983
10 0 59845  17760.000000  0       5453958.396       4138861.833       1265059.399
10 0 59845  17820.000000  0       5430034.266       4008919.100       1704853.626
10 0 59845  17880.000000  0       5381894.820       3862306.866       2137372.691
10 0 59845  17940.000000  0       5309598.108       3699855.294       2560769.393
10 0 59845  18000.000000  0       5213313.506       3522461.810       2973235.516
10 0 59845  18060.000000  0       5093321.489       3331086.200       3373009.857
10 0 59845  18120.000000  0       4950012.843       3126745.404       3758386.011
10 0 59845  18180.000000  0       4783887.307       2910508.039       4127719.901
10 0 59845  18240.000000  0       4595551.638       2683488.634       4479436.819
10 0 59845  18300.000000  0       4385717.405       2446841.920       4812038.171
10 0 59845  18360.000000  0       4155198.046       2201756.902       5124108.201
10 0 59845  18420.000000  0       3904905.289       1949450.724       5414319.981
10 0 59845  18480.000000  0       3635845.307       1691162.514       5681440.983
10 0 59845  18540.000000  0       3349114.385       1428147.138       5924338.226
10 0 59845  18600.000000  0       3045894.171       1161668.970       6141982.902
10 0 59845  18660.000000  0       2727446.561        892995.734       6333454.508
10 0 59845  18720.000000  0       2395108.269        623392.473       6497944.527
10 0 59845  18780.000000  0       2050285.055        354115.587       6634759.725
10 0 59845  18840.000000  0       1694445.628         86406.954       6743324.950
10 0 59845  18900.000000  0       1329115.224       -178511.822       6823185.457
10 0 59845  18960.000000  0        955868.882       -439445.071       6874008.668
10 0 59845  19020.000000  0        576324.537       -695228.490       6895585.319
10 0 59845  19080.000000  0        192135.941       -944734.309       6887830.216
10 0 59845  19140.000000  0       -195014.641      -1186876.288       6850782.471
10 0 59845  19200.000000  0       -583423.838      -1420614.474       6784605.209
10 0 59845  19260.000000  0       -971374.736      -1644959.682       6689584.765
10 0 59845  19320.000000  0      -1357144.464      -1858977.666       6566129.344
10 0 59845  19380.000000  0      -1739011.793      -2061792.960       6414767.271
10 0 59845  19440.000000  0      -2115264.786      -2252592.425       6236144.829
10 0 59845  19500.000000  0      -2484208.474      -2430628.525       6031023.680
10 0 59845  19560.000000  0      -2844172.620      -2595222.361       5800277.829
10 0 59845  19620.000000  0      -3193519.509      -2745766.331       5544889.948
10 0 59845  19680.000000  0      -3530651.521      -2881726.361       5265947.168
10 0 59845  19740.000000  0      -3854018.520      -3002643.808       4964636.481
10 0 59845  19800.000000  0      -4162125.100      -3108136.971       4642239.728
10 0 59845  19860.000000  0      -4453537.620      -3197902.207       4300128.162
10 0 59845  19920.000000  0      -4726890.994      -3271714.662       3939756.638
10 0 59845  19980.000000  0      -4980895.191      -3329428.614       3562657.437
10 0 59845  20040.000000  0      -5214341.457      -3370977.441       3170433.774
10 0 59845  20100.000000  0      -5426108.234      -3396373.220       2764752.959
10 0 59845  20160.000000  0      -5615166.705      -3405705.942       2347339.194
10 0 59845  20220.000000  0      -5780585.873      -3399142.316       1919966.085
10 0 59845  20280.000000  0      -5921537.199      -3376924.187       1484448.934
10 0 59845  20340.000000  0      -6037298.756      -3339366.537       1042636.832
10 0 59845  20400.000000  0      -6127258.870      -3286855.134        596404.651
10 0 59845  20460.000000  0      -6190919.274      -3219843.880        147644.920
10 0 59845  20520.000000  0      -6227897.736      -3138851.827       -301740.412
10 0 59845  20580.000000  0      -6237930.121      -3044459.856       -749848.274
10 0 59845  20640.000000  0      -6220871.829      -2937307.041      -1194782.760
10 0 59845  20700.000000  0      -6176698.623      -2818086.741      -1634663.310
10 0 59845  20760.000000  0      -6105506.879      -2687542.476      -2067632.742
10 0 59845  20820.000000  0      -6007513.333      -2546463.604      -2491865.113
10 0 59845  20880.000000  0      -5883054.256      -2395680.819      -2905573.464
10 0 59845  20940.000000  0      -5732584.062      -2236061.490      -3307017.321
10 0 59845  21000.000000  0      -5556673.357      -2068504.859      -3694509.946
10 0 59845  21060.000000  0      -5356006.484      -1893937.155      -4066425.269
10 0 59845  21120.000000  0      -5131378.592      -1713306.648      -4421204.538
10 0 59845  21180.000000  0      -4883692.211      -1527578.663      -4757362.652
10 0 59845  21240.000000  0      -4613953.352      -1337730.556      -5073494.153
10 0 59845  21300.000000  0      -4323267.141      -1144746.699      -5368278.802
10 0 59845  21360.000000  0      -4012833.057       -949613.525      -5640486.740
10 0 59845  21420.000000  0      -3683939.826       -753314.638      -5888983.264
10 0 59845  21480.000000  0      -3337959.939       -556826.001      -6112733.190
10 0 59845  21540.000000  0      -2976343.862       -361111.239      -6310804.780
99
